OBJECT B                
1 51825U 22019B   24337.80265041  .00025109  00000+0  86187-3 0  9999
2 51825  97.4112  47.7605 0012233  10.2327 349.9160 15.30059918152935
